NORAD_CAT_ID,OBJECT_NAME,OBJECT_TYPE,EPOCH,MEAN_MOTION,ECCENTRICITY,INCLINATION,RA_OF_ASC_NODE,ARG_OF_PERICENTER,MEAN_ANOMALY,BSTAR,MEAN_MOTION_DOT,MEAN_MOTION_DDOT,TLE_LINE0,TLE_LINE1,TLE_LINE2,SEMIMAJOR_AXIS,PERIOD,APOGEE,PERIGEE,DECAYED
52263.0,STARLINK-3786,PAYLOAD,2023-03-21 02:24:57,15.08855609,0.0001387,53.2148,298.0355,86.7776,273.3375,0.00025475,3.77e-05,0.0,0 STARLINK-3786,1 52263U 22041C   23080.10066759  .00003770  00000-0  25475-3 0  9997,2 52263  53.2148 298.0355 0001387  86.7776 273.3375 15.08855609 51839,6917.833,95.437,540.657,538.738,0.0
52263.0,STARLINK-3786,PAYLOAD,2023-03-21 21:29:35,15.08841465,0.000104,53.2149,294.4662,92.0057,268.1054,0.00012848,1.758e-05,0.0,0 STARLINK-3786,1 52263U 22041C   23080.89555088  .00001758  00000-0  12848-3 0  9995,2 52263  53.2149 294.4662 0001040  92.0057 268.1054 15.08841465 51953,6917.876,95.437,540.46,539.021,0.0
52263.0,STARLINK-3786,PAYLOAD,2023-03-22 19:44:59,15.08841024,0.0001515,53.2148,290.3035,105.5044,254.6116,0.00014461,2.014e-05,0.0,0 STARLINK-3786,1 52263U 22041C   23081.82291438  .00002014  00000-0  14461-3 0  9994,2 52263  53.2148 290.3035 0001515 105.5044 254.6116 15.08841024 50885,6917.877,95.437,540.79,538.694,0.0
52263.0,STARLINK-3786,PAYLOAD,2023-03-22 22:55:46,15.08840134,0.0001455,53.2148,289.709,104.3976,255.7178,0.0002203,3.22e-05,0.0,0 STARLINK-3786,1 52263U 22041C   23081.95539436  .00003220  00000-0  22030-3 0  9992,2 52263  53.2148 289.7090 0001455 104.3976 255.7178 15.08840134 52111,6917.88,95.438,540.752,538.738,0.0
52263.0,STARLINK-3786,PAYLOAD,2023-03-23 19:35:47,15.0883845,8.95e-05,53.2147,285.8417,93.0229,267.0865,6.1616e-05,6.93e-06,0.0,0 STARLINK-3786,1 52263U 22041C   23082.81651732  .00000693  00000-0  61616-4 0  9997,2 52263  53.2147 285.8417 0000895  93.0229 267.0865 15.08838450 52243,6917.885,95.438,540.369,539.131,0.0
52263.0,STARLINK-3786,PAYLOAD,2023-03-23 21:11:09,15.08849307,0.0001087,53.2139,285.5438,94.3964,265.7152,0.0003026,4.533e-05,0.0,0 STARLINK-3786,1 52263U 22041C   23082.88275441  .00004533  00000-0  30260-3 0  9990,2 52263  53.2139 285.5438 0001087  94.3964 265.7152 15.08849307 51042,6917.852,95.437,540.469,538.965,0.0
52263.0,STARLINK-3786,PAYLOAD,2023-03-24 00:21:56,15.08857227,0.000113,53.2138,284.9487,94.5074,265.6047,0.00067269,0.00010439,0.0,0 STARLINK-3786,1 52263U 22041C   23083.01523313  .00010439  00000-0  67269-3 0  9991,2 52263  53.2138 284.9487 0001130  94.5074 265.6047 15.08857227 52279,6917.828,95.436,540.474,538.911,0.0
52263.0,STARLINK-3786,PAYLOAD,2023-03-24 09:54:14,15.08872833,0.0001105,53.2145,283.1648,91.0808,269.0311,0.0013432,0.00021173,0.0,0 STARLINK-3786,1 52263U 22041C   23083.41267019  .00021173  00000-0  13432-2 0  9992,2 52263  53.2145 283.1648 0001105  91.0808 269.0311 15.08872833 51121,6917.78,95.435,540.409,538.881,0.0
52263.0,STARLINK-3786,PAYLOAD,2023-03-24 19:26:32,15.08880107,0.0001221,53.2133,281.3803,94.8222,265.291,0.0011157,0.00017532,0.0,0 STARLINK-3786,1 52263U 22041C   23083.81010051  .00017532  00000-0  11157-2 0  9994,2 52263  53.2133 281.3803 0001221  94.8222 265.2910 15.08880107 51183,6917.758,95.435,540.467,538.778,0.0
52263.0,STARLINK-3786,PAYLOAD,2023-03-24 22:37:18,15.08887674,0.0001284,53.2133,280.7851,92.2652,267.8487,0.001383,0.0002182,0.0,0 STARLINK-3786,1 52263U 22041C   23083.94257742  .00021820  00000-0  13830-2 0  9993,2 52263  53.2133 280.7851 0001284  92.2652 267.8487 15.08887674 52417,6917.735,95.435,540.488,538.711,0.0
52263.0,STARLINK-3786,PAYLOAD,2023-03-25 19:17:21,15.08807028,0.0001092,53.2143,276.9195,108.496,251.6151,-0.00038418,-6.391e-05,0.0,0 STARLINK-3786,1 52263U 22041C   23084.80372188 -.00006391  00000-0 -38418-3 0  9999,2 52263  53.2143 276.9195 0001092 108.4960 251.6151 15.08807028 52543,6917.981,95.44,540.602,539.091,0.0
52263.0,STARLINK-3786,PAYLOAD,2023-03-26 19:08:10,15.08822249,0.0001155,53.2156,272.4608,113.0057,247.1057,0.0010545,0.00016526,0.0,0 STARLINK-3786,1 52263U 22041C   23085.79734710  .00016526  00000-0  10545-2 0  9990,2 52263  53.2156 272.4608 0001155 113.0057 247.1057 15.08822249 52699,6917.935,95.439,540.599,539.001,0.0
52263.0,STARLINK-3786,PAYLOAD,2023-03-26 22:18:57,15.08828366,0.0001055,53.2143,271.8641,113.3334,246.7769,0.0011201,0.00017578,0.0,0 STARLINK-3786,1 52263U 22041C   23085.92982770  .00017578  00000-0  11201-2 0  9994,2 52263  53.2143 271.8641 0001055 113.3334 246.7769 15.08828366 51505,6917.916,95.438,540.511,539.051,0.0
52263.0,STARLINK-3786,PAYLOAD,2023-03-27 12:37:24,15.08861335,0.0001053,53.2145,269.1875,112.5425,247.5679,0.0013482,0.00021246,0.0,0 STARLINK-3786,1 52263U 22041C   23086.52598277  .00021246  00000-0  13482-2 0  9996,2 52263  53.2145 269.1875 0001053 112.5425 247.5679 15.08861335 52802,6917.815,95.436,540.409,538.952,0.0
52263.0,STARLINK-3786,PAYLOAD,2023-03-27 18:58:56,15.0887789,0.0001014,53.2147,267.9985,109.8396,250.2706,0.0015571,0.00024606,0.0,0 STARLINK-3786,1 52263U 22041C   23086.79093665  .00024606  00000-0  15571-2 0  9990,2 52263  53.2147 267.9985 0001014 109.8396 250.2706 15.08877890 51630,6917.765,95.435,540.331,538.928,0.0
52263.0,STARLINK-3786,PAYLOAD,2023-03-28 04:31:15,15.08865981,0.0001246,53.2147,266.2141,93.9152,266.1982,0.00053631,8.264e-05,0.0,0 STARLINK-3786,1 52263U 22041C   23087.18837208  .00008264  00000-0  53631-3 0  9995,2 52263  53.2147 266.2141 0001246  93.9152 266.1982 15.08865981 52907,6917.801,95.436,540.528,538.804,0.0
52263.0,STARLINK-3786,PAYLOAD,2023-03-28 12:28:10,15.08868417,0.0001622,53.2144,264.727,85.2909,274.8268,0.0010237,0.00016054,0.0,0 STARLINK-3786,1 52263U 22041C   23087.51956884  .00016054  00000-0  10237-2 0  9994,2 52263  53.2144 264.7270 0001622  85.2909 274.8268 15.08868417 51743,6917.794,95.436,540.781,538.536,0.0
52263.0,STARLINK-3786,PAYLOAD,2023-03-28 18:49:42,15.08870405,0.0001089,53.2149,263.5383,102.9934,257.118,0.00062998,9.761e-05,0.0,0 STARLINK-3786,1 52263U 22041C   23087.78452311  .00009761  00000-0  62998-3 0  9998,2 52263  53.2149 263.5383 0001089 102.9934 257.1180 15.08870405 51783,6917.787,95.436,540.406,538.899,0.0
52263.0,STARLINK-3786,PAYLOAD,2023-03-29 12:18:57,15.08860183,5.14e-05,53.2142,260.2662,51.1642,308.9396,0.0009833,0.00015405,0.0,0 STARLINK-3786,1 52263U 22041C   23088.51316200  .00015405  00000-0  98330-3 0  9997,2 52263  53.2142 260.2662 0000514  51.1642 308.9396 15.08860183 53107,6917.819,95.436,540.039,539.328,0.0
52263.0,STARLINK-3786,PAYLOAD,2023-03-29 18:40:29,15.08850423,7.72e-05,53.2141,259.0776,86.0737,274.0343,0.00018831,2.711e-05,0.0,0 STARLINK-3786,1 52263U 22041C   23088.77812014  .00002711  00000-0  18831-3 0  9993,2 52263  53.2141 259.0776 0000772  86.0737 274.0343 15.08850423 53141,6917.849,95.437,540.248,539.179,0.0
52263.0,STARLINK-3786,PAYLOAD,2023-03-30 04:12:48,15.08841915,9.19e-05,53.2143,257.2929,86.0062,274.1035,-0.00012677,-2.305e-05,0.0,0 STARLINK-3786,1 52263U 22041C   23089.17556262 -.00002305  00000-0 -12677-3 0  9991,2 52263  53.2143 257.2929 0000919  86.0062 274.1035 15.08841915 53209,6917.875,95.437,540.375,539.104,0.0
52263.0,STARLINK-3786,PAYLOAD,2023-03-30 18:31:17,15.08835029,9.15e-05,53.2143,254.6171,79.0437,281.0658,-0.00010606,-1.975e-05,0.0,0 STARLINK-3786,1 52263U 22041C   23089.77172665 -.00001975  00000-0 -10606-3 0  9990,2 52263  53.2143 254.6171 0000915  79.0437 281.0658 15.08835029 52085,6917.896,95.438,540.394,539.128,0.0
52263.0,STARLINK-3786,PAYLOAD,2023-03-31 19:57:26,15.08856522,9.84e-05,53.2145,249.8571,69.7095,290.4003,0.00030496,4.571e-05,0.0,0 STARLINK-3786,1 52263U 22041C   23090.83155828  .00004571  00000-0  30496-3 0  9993,2 52263  53.2145 249.8571 0000984  69.7095 290.4003 15.08856522 53450,6917.83,95.437,540.376,539.014,0.0
52263.0,STARLINK-3786,PAYLOAD,2023-04-01 03:54:22,15.08831131,7.92e-05,53.214,248.3739,270.8577,89.2324,-0.00015034,-2.679e-05,0.0,0 STARLINK-3786,1 52263U 22041C   23091.16276204 -.00002679  00000-0 -15034-3 0  9992,2 52263  53.2140 248.3739 0000792 270.8577  89.2324 15.08831131 53507,6917.907,95.438,540.32,539.225,0.0
52263.0,STARLINK-3786,PAYLOAD,2023-04-01 10:15:56,15.08827553,6.45e-05,53.2135,247.182,82.0625,278.044,-7.5736e-05,-1.492e-05,0.0,0 STARLINK-3786,1 52263U 22041C   23091.42773189 -.00001492  00000-0 -75736-4 0  9993,2 52263  53.2135 247.1820 0000645  82.0625 278.0440 15.08827553 52333,6917.918,95.438,540.23,539.337,0.0
52263.0,STARLINK-3786,PAYLOAD,2023-04-01 16:37:28,15.0883233,4.78e-05,53.212,245.9947,53.4425,306.6611,1.755e-05,-8e-08,0.0,0 STARLINK-3786,1 52263U 22041C   23091.69268979 -.00000008  00000-0  17550-4 0  9999,2 52263  53.2120 245.9947 0000478  53.4425 306.6611 15.08832330 52378,6917.904,95.438,540.1,539.438,0.0
52263.0,STARLINK-3786,PAYLOAD,2023-04-02 03:45:10,15.08844875,8.24e-05,53.2124,243.9123,69.0976,291.0104,0.00022315,3.266e-05,0.0,0 STARLINK-3786,1 52263U 22041C   23092.15636663  .00003266  00000-0  22315-3 0  9992,2 52263  53.2124 243.9123 0000824  69.0976 291.0104 15.08844875 53658,6917.865,95.437,540.301,539.16,0.0
52263.0,STARLINK-3786,PAYLOAD,2023-04-02 13:17:29,15.08838341,0.0001072,53.2147,242.1279,85.5868,274.5247,5.7263e-05,6.24e-06,0.0,0 STARLINK-3786,1 52263U 22041C   23092.55381063  .00000624  00000-0  57263-4 0  9993,2 52263  53.2147 242.1279 0001072  85.5868 274.5247 15.08838341 52503,6917.885,95.438,540.492,539.009,0.0
52263.0,STARLINK-3786,PAYLOAD,2023-04-02 19:39:01,15.08847825,0.0001273,53.2146,240.9374,86.1549,273.9589,0.00019261,2.779e-05,0.0,0 STARLINK-3786,1 52263U 22041C   23092.81876731  .00002779  00000-0  19261-3 0  9991,2 52263  53.2146 240.9374 0001273  86.1549 273.9589 15.08847825 52543,6917.856,95.437,540.602,538.841,0.0
52263.0,STARLINK-3786,PAYLOAD,2023-04-03 09:57:30,15.0884049,0.0001228,53.2127,238.2616,82.1141,277.9991,0.00029676,4.438e-05,0.0,0 STARLINK-3786,1 52263U 22041C   23093.41493318  .00004438  00000-0  29676-3 0  9999,2 52263  53.2127 238.2616 0001228  82.1141 277.9991 15.08840490 53841,6917.879,95.438,540.593,538.894,0.0
